{
    "links": {
        "self": "http://www.neowsapp.com/rest/v1/neo/3879232?api_key=iIulBulltgU6a56xZRHN4H3l9WmuAYTsLGpBGhQ2"
    },
    "id": "3879232",
    "neo_reference_id": "3879232",
    "name": "(2019 UP)",
    "designation": "2019 UP",
    "nasa_jpl_url": "http://ssd.jpl.nasa.gov/sbdb.cgi?sstr=3879232",
    "absolute_magnitude_h": 26.1,
    "estimated_diameter": {
        "kilometers": {
            "estimated_diameter_min": 0.0160160338,
            "estimated_diameter_max": 0.0358129403
        },
        "meters": {
            "estimated_diameter_min": 16.0160337979,
            "estimated_diameter_max": 35.8129403019
        },
        "miles": {
            "estimated_diameter_min": 0.0099518989,
            "estimated_diameter_max": 0.0222531225
        },
        "feet": {
            "estimated_diameter_min": 52.5460443254,
            "estimated_diameter_max": 117.4965270602
        }
    },
    "is_potentially_hazardous_asteroid": false,
    "close_approach_data": [
        {
            "close_approach_date": "2019-10-14",
            "close_approach_date_full": "2019-Oct-14 07:17",
            "epoch_date_close_approach": 1571037420000,
            "relative_velocity": {
                "kilometers_per_second": "8.1515795148",
                "kilometers_per_hour": "29345.6862534342",
                "miles_per_hour": "18234.2682167519"
            },
            "miss_distance": {
                "astronomical": "0.0295034444",
                "lunar": "11.4768398716",
                "kilometers": "4413652.439903428",
                "miles": "2742516.4539781864"
            },
            "orbiting_body": "Earth"
        }
    ],
    "orbital_data": {
        "orbit_id": "4",
        "orbit_determination_date": "2019-10-24 06:06:44",
        "first_observation_date": "2019-10-19",
        "last_observation_date": "2019-10-23",
        "data_arc_in_days": 4,
        "observations_used": 36,
        "orbit_uncertainty": "8",
        "minimum_orbit_intersection": ".0254228",
        "jupiter_tisserand_invariant": "3.314",
        "epoch_osculation": "2458776.5",
        "eccentricity": ".5675534991400255",
        "semi_major_axis": "2.353912578367517",
        "inclination": "4.95528841160038",
        "ascending_node_longitude": "24.63177893216827",
        "orbital_period": "1319.118834489023",
        "perihelion_distance": "1.017941257845313",
        "perihelion_argument": "344.4583349271148",
        "aphelion_distance": "3.68988389888972",
        "perihelion_time": "2458761.844339350213",
        "mean_anomaly": "3.999668336148849",
        "mean_motion": ".272909453331739",
        "equinox": "J2000",
        "orbit_class": {
            "orbit_class_type": "AMO",
            "orbit_class_description": "Near-Earth asteroid orbits similar to that of 1221 Amor",
            "orbit_class_range": "1.017 AU < q (perihelion) < 1.3 AU"
        }
    },
    "is_sentry_object": false
}